{
  "type": "FeatureCollection",
  "features": [
    {
      "type": "Feature",
      "properties": {
        "norad_id": 34588,
        "name": "COSMOS 2251 DEB",
        "group": "cosmos-2251-debris",
        "lat": -67.27242844295236,
        "lon": 136.8042090755662,
        "alt_km": 754.7773491943744,
        "timestamp": "2025-12-09T18:55:17.626425+00:00",
        "meta_object_name": "COSMOS 2251 DEB",
        "meta_object_id": "1993-036WA",
        "meta_epoch": "2025-12-09T06:41:12.907968",
        "meta_mean_motion": 14.42005254,
        "meta_eccentricity": 0.0019106,
        "meta_inclination": 74.0441,
        "meta_ra_of_asc_node": 274.6685,
        "meta_arg_of_pericenter": 327.7085,
        "meta_mean_anomaly": 160.7791,
        "meta_ephemeris_type": 0,
        "meta_classification_type": "U",
        "meta_norad_cat_id": 34588,
        "meta_element_set_no": 999,
        "meta_rev_at_epoch": 87900,
        "meta_bstar": 0.00086212,
        "meta_mean_motion_dot": 2.809e-05,
        "meta_mean_motion_ddot": 0,
        "tle_line1": "1 34588U 93036WA  25343.27862162  .00002809  00000+0  86212-3 0  9990",
        "tle_line2": "2 34588  74.0441 274.6685 0019106 327.7085 160.7791 14.42005254879009"
      },
      "geometry": {
        "type": "Point",
        "coordinates": [
          136.8042090755662,
          -67.27242844295236
        ]
      }
    },
    {
      "type": "Feature",
      "properties": {
        "norad_id": 34589,
        "name": "COSMOS 2251 DEB",
        "group": "cosmos-2251-debris",
        "lat": -29.214286748928497,
        "lon": 51.78184723408946,
        "alt_km": 796.2310871847858,
        "timestamp": "2025-12-09T18:55:17.626435+00:00",
        "meta_object_name": "COSMOS 2251 DEB",
        "meta_object_id": "1993-036WB",
        "meta_epoch": "2025-12-09T12:13:17.410656",
        "meta_mean_motion": 13.8604857,
        "meta_eccentricity": 0.02517935,
        "meta_inclination": 73.9254,
        "meta_ra_of_asc_node": 61.5361,
        "meta_arg_of_pericenter": 5.5277,
        "meta_mean_anomaly": 13.2328,
        "meta_ephemeris_type": 0,
        "meta_classification_type": "U",
        "meta_norad_cat_id": 34589,
        "meta_element_set_no": 999,
        "meta_rev_at_epoch": 84667,
        "meta_bstar": 0.00037001793,
        "meta_mean_motion_dot": 5.22e-06,
        "meta_mean_motion_ddot": 0,
        "tle_line1": "1 34589U 93036WB  25343.50922929  .00000522  00000+0  37002-3 0  9998",
        "tle_line2": "2 34589  73.9254  61.5361 0251793   5.5277  13.2328 13.86048570846678"
      },
      "geometry": {
        "type": "Point",
        "coordinates": [
          51.78184723408946,
          -29.214286748928497
        ]
      }
    },
    {
      "type": "Feature",
      "properties": {
        "norad_id": 34590,
        "name": "COSMOS 2251 DEB",
        "group": "cosmos-2251-debris",
        "lat": -51.62446359054114,
        "lon": -53.04568657010046,
        "alt_km": 759.4721056367007,
        "timestamp": "2025-12-09T18:55:17.626445+00:00",
        "meta_object_name": "COSMOS 2251 DEB",
        "meta_object_id": "1993-036WC",
        "meta_epoch": "2025-12-09T09:49:36.398784",
        "meta_mean_motion": 14.54820329,
        "meta_eccentricity": 0.00679634,
        "meta_inclination": 74.0436,
        "meta_ra_of_asc_node": 328.8508,
        "meta_arg_of_pericenter": 99.4372,
        "meta_mean_anomaly": 22.4804,
        "meta_ephemeris_type": 0,
        "meta_classification_type": "U",
        "meta_norad_cat_id": 34590,
        "meta_element_set_no": 999,
        "meta_rev_at_epoch": 89072,
        "meta_bstar": 0.00023177511,
        "meta_mean_motion_dot": 9.96e-06,
        "meta_mean_motion_ddot": 0,
        "tle_line1": "1 34590U 93036WC  25343.40944906  .00000996  00000+0  23178-3 0  9992",
        "tle_line2": "2 34590  74.0436 328.8508 0067963  99.4372  22.4804 14.54820329890720"
      },
      "geometry": {
        "type": "Point",
        "coordinates": [
          -53.04568657010046,
          -51.62446359054114
        ]
      }
    },
    {
      "type": "Feature",
      "properties": {
        "norad_id": 34609,
        "name": "COSMOS 2251 DEB",
        "group": "cosmos-2251-debris",
        "lat": 62.30156083282921,
        "lon": 145.90805549534645,
        "alt_km": 820.9514159819373,
        "timestamp": "2025-12-09T18:55:17.626455+00:00",
        "meta_object_name": "COSMOS 2251 DEB",
        "meta_object_id": "1993-036WE",
        "meta_epoch": "2025-12-09T15:18:24.012288",
        "meta_mean_motion": 14.21775862,
        "meta_eccentricity": 0.01449205,
        "meta_inclination": 73.733,
        "meta_ra_of_asc_node": 112.3912,
        "meta_arg_of_pericenter": 332.3661,
        "meta_mean_anomaly": 42.6584,
        "meta_ephemeris_type": 0,
        "meta_classification_type": "U",
        "meta_norad_cat_id": 34609,
        "meta_element_set_no": 999,
        "meta_rev_at_epoch": 86588,
        "meta_bstar": 0.001227793,
        "meta_mean_motion_dot": 2.979e-05,
        "meta_mean_motion_ddot": 0,
        "tle_line1": "1 34609U 93036WE  25343.63777792  .00002979  00000+0  12278-2 0  9996",
        "tle_line2": "2 34609  73.7330 112.3912 0144920 332.3661  42.6584 14.21775862865887"
      },
      "geometry": {
        "type": "Point",
        "coordinates": [
          145.90805549534645,
          62.30156083282921
        ]
      }
    },
    {
      "type": "Feature",
      "properties": {
        "norad_id": 34610,
        "name": "COSMOS 2251 DEB",
        "group": "cosmos-2251-debris",
        "lat": 26.228984999976475,
        "lon": -84.38845364302588,
        "alt_km": 740.0343721059744,
        "timestamp": "2025-12-09T18:55:17.626465+00:00",
        "meta_object_name": "COSMOS 2251 DEB",
        "meta_object_id": "1993-036WF",
        "meta_epoch": "2025-12-08T20:36:47.149056",
        "meta_mean_motion": 14.07013435,
        "meta_eccentricity": 0.01802466,
        "meta_inclination": 74.0204,
        "meta_ra_of_asc_node": 269.1248,
        "meta_arg_of_pericenter": 40.5884,
        "meta_mean_anomaly": 320.853,
        "meta_ephemeris_type": 0,
        "meta_classification_type": "U",
        "meta_norad_cat_id": 34610,
        "meta_element_set_no": 999,
        "meta_rev_at_epoch": 85505,
        "meta_bstar": 0.0033348409,
        "meta_mean_motion_dot": 6.437e-05,
        "meta_mean_motion_ddot": 0,
        "tle_line1": "1 34610U 93036WF  25342.85887904  .00006437  00000+0  33348-2 0  9992",
        "tle_line2": "2 34610  74.0204 269.1248 0180246  40.5884 320.8530 14.07013435855057"
      },
      "geometry": {
        "type": "Point",
        "coordinates": [
          -84.38845364302588,
          26.228984999976475
        ]
      }
    },
    {
      "type": "Feature",
      "properties": {
        "norad_id": 34611,
        "name": "COSMOS 2251 DEB",
        "group": "cosmos-2251-debris",
        "lat": 38.10578379806338,
        "lon": -86.2807912824769,
        "alt_km": 643.7314294345988,
        "timestamp": "2025-12-09T18:55:17.626475+00:00",
        "meta_object_name": "COSMOS 2251 DEB",
        "meta_object_id": "1993-036WG",
        "meta_epoch": "2025-12-09T15:04:09.313248",
        "meta_mean_motion": 14.69407537,
        "meta_eccentricity": 0.00231045,
        "meta_inclination": 74.0535,
        "meta_ra_of_asc_node": 106.9879,
        "meta_arg_of_pericenter": 149.5657,
        "meta_mean_anomaly": 221.7224,
        "meta_ephemeris_type": 0,
        "meta_classification_type": "U",
        "meta_norad_cat_id": 34611,
        "meta_element_set_no": 999,
        "meta_rev_at_epoch": 88345,
        "meta_bstar": 0.0026452288,
        "meta_mean_motion_dot": 0.00015722,
        "meta_mean_motion_ddot": 0,
        "tle_line1": "1 34611U 93036WG  25343.62788557  .00015722  00000+0  26452-2 0  9998",
        "tle_line2": "2 34611  74.0535 106.9879 0023104 149.5657 221.7224 14.69407537883452"
      },
      "geometry": {
        "type": "Point",
        "coordinates": [
          -86.2807912824769,
          38.10578379806338
        ]
      }
    },
    {
      "type": "Feature",
      "properties": {
        "norad_id": 34613,
        "name": "COSMOS 2251 DEB",
        "group": "cosmos-2251-debris",
        "lat": -35.21090340888658,
        "lon": -87.79793079108205,
        "alt_km": 880.1490447455262,
        "timestamp": "2025-12-09T18:55:17.626486+00:00",
        "meta_object_name": "COSMOS 2251 DEB",
        "meta_object_id": "1993-036WJ",
        "meta_epoch": "2025-12-09T12:55:21.253152",
        "meta_mean_motion": 14.26403229,
        "meta_eccentricity": 0.01101289,
        "meta_inclination": 73.9644,
        "meta_ra_of_asc_node": 284.366,
        "meta_arg_of_pericenter": 117.028,
        "meta_mean_anomaly": 3.7338,
        "meta_ephemeris_type": 0,
        "meta_classification_type": "U",
        "meta_norad_cat_id": 34613,
        "meta_element_set_no": 999,
        "meta_rev_at_epoch": 86417,
        "meta_bstar": 0.0019072754,
        "meta_mean_motion_dot": 4.868e-05,
        "meta_mean_motion_ddot": 0,
        "tle_line1": "1 34613U 93036WJ  25343.53844043  .00004868  00000+0  19073-2 0  9993",
        "tle_line2": "2 34613  73.9644 284.3660 0110128 117.0280   3.7338 14.26403229864176"
      },
      "geometry": {
        "type": "Point",
        "coordinates": [
          -87.79793079108205,
          -35.21090340888658
        ]
      }
    }
  ]
}